[{"OBJECT_NAME":"PCSAT (NO-44)","OBJECT_ID":"2001-043C","EPOCH":"2026-03-09T13:24:02.117376","MEAN_MOTION":14.31912221,"ECCENTRICITY":0.0007015,"INCLINATION":67.0506,"RA_OF_ASC_NODE":141.9526,"ARG_OF_PERICENTER":265.3804,"MEAN_ANOMALY":94.6497,"EPHEMERIS_TYPE":0,"CLASSIFICATION_TYPE":"U","NORAD_CAT_ID":26931,"ELEMENT_SET_NO":999,"REV_AT_EPOCH":27618,"BSTAR":0.00011176,"MEAN_MOTION_DOT":2.17e-6,"MEAN_MOTION_DDOT":0},{"OBJECT_NAME":"FENGYUN 1C DEB","OBJECT_ID":"1999-025AVT","EPOCH":"2026-03-07T03:50:09.407904","MEAN_MOTION":14.27014293,"ECCENTRICITY":0.00320672,"INCLINATION":99.8535,"RA_OF_ASC_NODE":227.7574,"ARG_OF_PERICENTER":303.1711,"MEAN_ANOMALY":56.6391,"EPHEMERIS_TYPE":0,"CLASSIFICATION_TYPE":"U","NORAD_CAT_ID":30833,"ELEMENT_SET_NO":999,"REV_AT_EPOCH":65615,"BSTAR":0.00055606859,"MEAN_MOTION_DOT":1.306e-5,"MEAN_MOTION_DDOT":0}]
